[
    {
        "OBJECT_NAME": "NAVSTAR 59 (USA 192)",
        "OBJECT_ID": "2006-052A",
        "EPOCH": "2025-04-13T03:28:16.446720",
        "MEAN_MOTION": 2.00559432,
        "ECCENTRICITY": 0.0086955,
        "INCLINATION": 55.0348,
        "RA_OF_ASC_NODE": 231.0605,
        "ARG_OF_PERICENTER": 85.6745,
        "MEAN_ANOMALY": 275.287,
        "EPHEMERIS_TYPE": 0,
        "CLASSIFICATION_TYPE": "U",
        "NORAD_CAT_ID": 29601,
        "ELEMENT_SET_NO": 999,
        "REV_AT_EPOCH": 13478,
        "BSTAR": 0,
        "MEAN_MOTION_DOT": -1.6e-07,
        "MEAN_MOTION_DDOT": 0
    },
    {
        "OBJECT_NAME": "NAVSTAR 60 (USA 196)",
        "OBJECT_ID": "2007-047A",
        "EPOCH": "2025-04-12T10:59:02.317344",
        "MEAN_MOTION": 2.00549955,
        "ECCENTRICITY": 0.0159581,
        "INCLINATION": 53.7869,
        "RA_OF_ASC_NODE": 97.8545,
        "ARG_OF_PERICENTER": 80.2748,
        "MEAN_ANOMALY": 281.5387,
        "EPHEMERIS_TYPE": 0,
        "CLASSIFICATION_TYPE": "U",
        "NORAD_CAT_ID": 32260,
        "ELEMENT_SET_NO": 999,
        "REV_AT_EPOCH": 12817,
        "BSTAR": 0,
        "MEAN_MOTION_DOT": 2.4e-07,
        "MEAN_MOTION_DDOT": 0
    },
    {
        "OBJECT_NAME": "NAVSTAR 62 (USA 201)",
        "OBJECT_ID": "2008-012A",
        "EPOCH": "2025-04-12T20:47:16.577376",
        "MEAN_MOTION": 2.00556789,
        "ECCENTRICITY": 0.0196995,
        "INCLINATION": 54.4571,
        "RA_OF_ASC_NODE": 167.1029,
        "ARG_OF_PERICENTER": 242.376,
        "MEAN_ANOMALY": 115.6901,
        "EPHEMERIS_TYPE": 0,
        "CLASSIFICATION_TYPE": "U",
        "NORAD_CAT_ID": 32711,
        "ELEMENT_SET_NO": 999,
        "REV_AT_EPOCH": 12512,
        "BSTAR": 0,
        "MEAN_MOTION_DOT": 4.5e-07,
        "MEAN_MOTION_DDOT": 0
    },
    {
        "OBJECT_NAME": "NAVSTAR 63 (USA 203)",
        "OBJECT_ID": "2009-014A",
        "EPOCH": "2025-04-13T18:31:30.560736",
        "MEAN_MOTION": 2.00565596,
        "ECCENTRICITY": 0.0137873,
        "INCLINATION": 54.5803,
        "RA_OF_ASC_NODE": 227.8795,
        "ARG_OF_PERICENTER": 60.1418,
        "MEAN_ANOMALY": 302.0404,
        "EPHEMERIS_TYPE": 0,
        "CLASSIFICATION_TYPE": "U",
        "NORAD_CAT_ID": 34661,
        "ELEMENT_SET_NO": 999,
        "REV_AT_EPOCH": 11767,
        "BSTAR": 0,
        "MEAN_MOTION_DOT": -7e-08,
        "MEAN_MOTION_DDOT": 0
    },
    {
        "OBJECT_NAME": "NAVSTAR 64 (USA 206)",
        "OBJECT_ID": "2009-043A",
        "EPOCH": "2025-04-13T02:31:25.313376",
        "MEAN_MOTION": 2.00551471,
        "ECCENTRICITY": 0.0054634,
        "INCLINATION": 55.917,
        "RA_OF_ASC_NODE": 44.3933,
        "ARG_OF_PERICENTER": 75.2645,
        "MEAN_ANOMALY": 107.8248,
        "EPHEMERIS_TYPE": 0,
        "CLASSIFICATION_TYPE": "U",
        "NORAD_CAT_ID": 35752,
        "ELEMENT_SET_NO": 999,
        "REV_AT_EPOCH": 11473,
        "BSTAR": 0,
        "MEAN_MOTION_DOT": -8e-07,
        "MEAN_MOTION_DDOT": 0
    },
    {
        "OBJECT_NAME": "NAVSTAR 65 (USA 213)",
        "OBJECT_ID": "2010-022A",
        "EPOCH": "2025-04-13T04:14:38.843808",
        "MEAN_MOTION": 2.00566675,
        "ECCENTRICITY": 0.0121277,
        "INCLINATION": 54.3557,
        "RA_OF_ASC_NODE": 225.8917,
        "ARG_OF_PERICENTER": 63.9179,
        "MEAN_ANOMALY": 292.6893,
        "EPHEMERIS_TYPE": 0,
        "CLASSIFICATION_TYPE": "U",
        "NORAD_CAT_ID": 36585,
        "ELEMENT_SET_NO": 999,
        "REV_AT_EPOCH": 10896,
        "BSTAR": 0,
        "MEAN_MOTION_DOT": -1.3e-07,
        "MEAN_MOTION_DDOT": 0
    },
    {
        "OBJECT_NAME": "NAVSTAR 66 (USA 232)",
        "OBJECT_ID": "2011-036A",
        "EPOCH": "2025-04-13T08:31:24.648960",
        "MEAN_MOTION": 2.00567155,
        "ECCENTRICITY": 0.0134793,
        "INCLINATION": 56.7214,
        "RA_OF_ASC_NODE": 348.7195,
        "ARG_OF_PERICENTER": 59.119,
        "MEAN_ANOMALY": 133.3236,
        "EPHEMERIS_TYPE": 0,
        "CLASSIFICATION_TYPE": "U",
        "NORAD_CAT_ID": 37753,
        "ELEMENT_SET_NO": 999,
        "REV_AT_EPOCH": 10065,
        "BSTAR": 0,
        "MEAN_MOTION_DOT": -9.2e-07,
        "MEAN_MOTION_DDOT": 0
    },
    {
        "OBJECT_NAME": "NAVSTAR 69 (USA 248)",
        "OBJECT_ID": "2014-008A",
        "EPOCH": "2025-04-12T21:50:28.707072",
        "MEAN_MOTION": 2.00559683,
        "ECCENTRICITY": 0.00776,
        "INCLINATION": 53.6085,
        "RA_OF_ASC_NODE": 166.8614,
        "ARG_OF_PERICENTER": 224.1413,
        "MEAN_ANOMALY": 135.3175,
        "EPHEMERIS_TYPE": 0,
        "CLASSIFICATION_TYPE": "U",
        "NORAD_CAT_ID": 39533,
        "ELEMENT_SET_NO": 999,
        "REV_AT_EPOCH": 8105,
        "BSTAR": 0,
        "MEAN_MOTION_DOT": 4.4e-07,
        "MEAN_MOTION_DDOT": 0
    },
    {
        "OBJECT_NAME": "NAVSTAR 70 (USA 251)",
        "OBJECT_ID": "2014-026A",
        "EPOCH": "2025-04-12T16:39:39.842496",
        "MEAN_MOTION": 2.0057893,
        "ECCENTRICITY": 0.0036066,
        "INCLINATION": 56.6625,
        "RA_OF_ASC_NODE": 348.255,
        "ARG_OF_PERICENTER": 319.8179,
        "MEAN_ANOMALY": 39.9648,
        "EPHEMERIS_TYPE": 0,
        "CLASSIFICATION_TYPE": "U",
        "NORAD_CAT_ID": 39741,
        "ELEMENT_SET_NO": 999,
        "REV_AT_EPOCH": 7990,
        "BSTAR": 0,
        "MEAN_MOTION_DOT": -9.3e-07,
        "MEAN_MOTION_DDOT": 0
    }
]