NAVSTAR 59 (USA 192)    
1 29601U 06052A   25103.14463480 -.00000016  00000+0  00000+0 0  9998
2 29601  55.0348 231.0605 0086955  85.6745 275.2870  2.00559432134784
NAVSTAR 60 (USA 196)    
1 32260U 07047A   25102.45766571  .00000024  00000+0  00000+0 0  9996
2 32260  53.7869  97.8545 0159581  80.2748 281.5387  2.00549955128171
NAVSTAR 62 (USA 201)    
1 32711U 08012A   25102.86616409  .00000045  00000+0  00000+0 0  9992
2 32711  54.4571 167.1029 0196995 242.3760 115.6901  2.00556789125127
NAVSTAR 63 (USA 203)    
1 34661U 09014A   25103.77188149 -.00000007  00000+0  00000+0 0  9996
2 34661  54.5803 227.8795 0137873  60.1418 302.0404  2.00565596117679
NAVSTAR 64 (USA 206)    
1 35752U 09043A   25103.10515409 -.00000080  00000+0  00000+0 0  9991
2 35752  55.9170  44.3933 0054634  75.2645 107.8248  2.00551471114739
NAVSTAR 65 (USA 213)    
1 36585U 10022A   25103.17683847 -.00000013  00000+0  00000+0 0  9990
2 36585  54.3557 225.8917 0121277  63.9179 292.6893  2.00566675108967
NAVSTAR 66 (USA 232)    
1 37753U 11036A   25103.35514640 -.00000092  00000+0  00000+0 0  9995
2 37753  56.7214 348.7195 0134793  59.1190 133.3236  2.00567155100655
NAVSTAR 69 (USA 248)    
1 39533U 14008A   25102.91005448  .00000044  00000+0  00000+0 0  9993
2 39533  53.6085 166.8614 0077600 224.1413 135.3175  2.00559683 81058
NAVSTAR 70 (USA 251)    
1 39741U 14026A   25102.69421114 -.00000093  00000+0  00000+0 0  9996
2 39741  56.6625 348.2550 0036066 319.8179  39.9648  2.00578930 79900
